MALLIGYONG-1            
1 58400U 23179A   24175.16818421  .00005142  00000+0  23404-3 0  9996
2 58400  97.4033  61.9165 0002939 133.3004 226.8477 15.21136301 32633
